STARLINK-37061          
1 68185U 26050U   26089.60107527  .00219381  00000+0  10832-2 0  9993
2 68185  53.1593 176.8841 0001041  84.7916 275.3225 15.80949574  3788
STARLINK-37079          
1 68186U 26050V   26089.60032409  .00217580  00000+0  10745-2 0  9992
2 68186  53.1592 176.8796 0000893  76.6047 283.5075 15.80949965  3784
STARLINK-37006          
1 68187U 26050W   26089.53635247  .00273958  00000+0  13415-2 0  9992
2 68187  53.1595 177.1911 0001277  84.0308 276.0860 15.80977376  3776
STARLINK-36340          
1 68188U 26050X   26089.59882495  .00223880  00000+0  11047-2 0  9996
2 68188  53.1593 176.8689 0001065  77.6894 282.4248 15.80950441  3681
STARLINK-36305          
1 68189U 26050Y   26089.59807624  .00243934  00000+0  12007-2 0  9997
2 68189  53.1593 176.8642 0001336  73.3486 286.7684 15.80947178  3686
STARLINK-37071          
1 68190U 26050Z   26089.59657600  .00196835  00000+0  97554-3 0  9994
2 68190  53.1594 176.8538 0001466  75.8868 284.2318 15.80932926  3781
STARLINK-37091          
1 68191U 26050AA  26089.53260404  .00279855  00000+0  13698-2 0  9991
2 68191  53.1593 177.1650 0001168  71.9997 288.1153 15.80970693  3771
STARLINK-37098          
1 68192U 26050AB  26089.53185114  .00286310  00000+0  13994-2 0  9999
2 68192  53.1595 177.1601 0001340  97.6121 262.5054 15.80983373  3771
STARLINK-37090          
1 68193U 26050AC  26089.53035219  .00387223  00000+0  18667-2 0  9997
2 68193  53.1592 177.1491 0000916  88.2535 271.8593 15.81012183  3773
STARLINK-37093          
1 68194U 26050AD  26089.59732552  .00208489  00000+0  10311-2 0  9992
2 68194  53.1593 176.8583 0001504  75.0231 285.0958 15.80945531  3788
STARLINK-37058          
1 68195U 26050AE  26089.53110303  .00205781  00000+0  10181-2 0  9998
2 68195  53.1596 177.1546 0000967 110.7970 249.3157 15.80944888  2219
YAOGAN-50 02            
1 68196U 26051A   26089.59020543  .00000267  00000+0  72370-4 0  9994
2 68196 141.9868 308.0268 0000799 268.7957  91.2671 13.83266229  2106
