CCSDS_OMM_VERS = 2.0
CREATION_DATE  = 
ORIGINATOR     = 

OBJECT_NAME    = STARLINK-37061
OBJECT_ID      = 2026-050U
CENTER_NAME    = EARTH
REF_FRAME      = TEME
TIME_SYSTEM    = UTC
MEAN_ELEMENT_THEORY = SGP/SGP4

EPOCH          = 2026-03-30T14:25:32.903328
MEAN_MOTION    = 15.80949574
ECCENTRICITY   = .00010418
INCLINATION    = 53.1593
RA_OF_ASC_NODE = 176.8841
ARG_OF_PERICENTER = 84.7916
MEAN_ANOMALY   = 275.3225

EPHEMERIS_TYPE = 0
CLASSIFICATION_TYPE = U
NORAD_CAT_ID   = 68185
ELEMENT_SET_NO = 999
REV_AT_EPOCH   = 378
BSTAR          = .10831999E-2
MEAN_MOTION_DOT = .219381E-2
MEAN_MOTION_DDOT = 0

CCSDS_OMM_VERS = 2.0
CREATION_DATE  = 
ORIGINATOR     = 

OBJECT_NAME    = STARLINK-37079
OBJECT_ID      = 2026-050V
CENTER_NAME    = EARTH
REF_FRAME      = TEME
TIME_SYSTEM    = UTC
MEAN_ELEMENT_THEORY = SGP/SGP4

EPOCH          = 2026-03-30T14:24:28.001376
MEAN_MOTION    = 15.80949965
ECCENTRICITY   = .00008931
INCLINATION    = 53.1592
RA_OF_ASC_NODE = 176.8796
ARG_OF_PERICENTER = 76.6047
MEAN_ANOMALY   = 283.5075

EPHEMERIS_TYPE = 0
CLASSIFICATION_TYPE = U
NORAD_CAT_ID   = 68186
ELEMENT_SET_NO = 999
REV_AT_EPOCH   = 378
BSTAR          = .10745389E-2
MEAN_MOTION_DOT = .21758E-2
MEAN_MOTION_DDOT = 0

CCSDS_OMM_VERS = 2.0
CREATION_DATE  = 
ORIGINATOR     = 

OBJECT_NAME    = STARLINK-37006
OBJECT_ID      = 2026-050W
CENTER_NAME    = EARTH
REF_FRAME      = TEME
TIME_SYSTEM    = UTC
MEAN_ELEMENT_THEORY = SGP/SGP4

EPOCH          = 2026-03-30T12:52:20.853408
MEAN_MOTION    = 15.80977376
ECCENTRICITY   = .00012771
INCLINATION    = 53.1595
RA_OF_ASC_NODE = 177.1911
ARG_OF_PERICENTER = 84.0308
MEAN_ANOMALY   = 276.0860

EPHEMERIS_TYPE = 0
CLASSIFICATION_TYPE = U
NORAD_CAT_ID   = 68187
ELEMENT_SET_NO = 999
REV_AT_EPOCH   = 377
BSTAR          = .13415136E-2
MEAN_MOTION_DOT = .273958E-2
MEAN_MOTION_DDOT = 0

CCSDS_OMM_VERS = 2.0
CREATION_DATE  = 
ORIGINATOR     = 

OBJECT_NAME    = STARLINK-36340
OBJECT_ID      = 2026-050X
CENTER_NAME    = EARTH
REF_FRAME      = TEME
TIME_SYSTEM    = UTC
MEAN_ELEMENT_THEORY = SGP/SGP4

EPOCH          = 2026-03-30T14:22:18.475680
MEAN_MOTION    = 15.80950441
ECCENTRICITY   = .00010652
INCLINATION    = 53.1593
RA_OF_ASC_NODE = 176.8689
ARG_OF_PERICENTER = 77.6894
MEAN_ANOMALY   = 282.4248

EPHEMERIS_TYPE = 0
CLASSIFICATION_TYPE = U
NORAD_CAT_ID   = 68188
ELEMENT_SET_NO = 999
REV_AT_EPOCH   = 368
BSTAR          = .11047183E-2
MEAN_MOTION_DOT = .22388E-2
MEAN_MOTION_DDOT = 0

CCSDS_OMM_VERS = 2.0
CREATION_DATE  = 
ORIGINATOR     = 

OBJECT_NAME    = STARLINK-36305
OBJECT_ID      = 2026-050Y
CENTER_NAME    = EARTH
REF_FRAME      = TEME
TIME_SYSTEM    = UTC
MEAN_ELEMENT_THEORY = SGP/SGP4

EPOCH          = 2026-03-30T14:21:13.787136
MEAN_MOTION    = 15.80947178
ECCENTRICITY   = .00013366
INCLINATION    = 53.1593
RA_OF_ASC_NODE = 176.8642
ARG_OF_PERICENTER = 73.3486
MEAN_ANOMALY   = 286.7684

EPHEMERIS_TYPE = 0
CLASSIFICATION_TYPE = U
NORAD_CAT_ID   = 68189
ELEMENT_SET_NO = 999
REV_AT_EPOCH   = 368
BSTAR          = .12007347E-2
MEAN_MOTION_DOT = .243934E-2
MEAN_MOTION_DDOT = 0

CCSDS_OMM_VERS = 2.0
CREATION_DATE  = 
ORIGINATOR     = 

OBJECT_NAME    = STARLINK-37071
OBJECT_ID      = 2026-050Z
CENTER_NAME    = EARTH
REF_FRAME      = TEME
TIME_SYSTEM    = UTC
MEAN_ELEMENT_THEORY = SGP/SGP4

EPOCH          = 2026-03-30T14:19:04.166400
MEAN_MOTION    = 15.80932926
ECCENTRICITY   = .00014668
INCLINATION    = 53.1594
RA_OF_ASC_NODE = 176.8538
ARG_OF_PERICENTER = 75.8868
MEAN_ANOMALY   = 284.2318

EPHEMERIS_TYPE = 0
CLASSIFICATION_TYPE = U
NORAD_CAT_ID   = 68190
ELEMENT_SET_NO = 999
REV_AT_EPOCH   = 378
BSTAR          = .97553503E-3
MEAN_MOTION_DOT = .196835E-2
MEAN_MOTION_DDOT = 0

CCSDS_OMM_VERS = 2.0
CREATION_DATE  = 
ORIGINATOR     = 

OBJECT_NAME    = STARLINK-37091
OBJECT_ID      = 2026-050AA
CENTER_NAME    = EARTH
REF_FRAME      = TEME
TIME_SYSTEM    = UTC
MEAN_ELEMENT_THEORY = SGP/SGP4

EPOCH          = 2026-03-30T12:46:56.989056
MEAN_MOTION    = 15.80970693
ECCENTRICITY   = .00011682
INCLINATION    = 53.1593
RA_OF_ASC_NODE = 177.1650
ARG_OF_PERICENTER = 71.9997
MEAN_ANOMALY   = 288.1153

EPHEMERIS_TYPE = 0
CLASSIFICATION_TYPE = U
NORAD_CAT_ID   = 68191
ELEMENT_SET_NO = 999
REV_AT_EPOCH   = 377
BSTAR          = .13697856E-2
MEAN_MOTION_DOT = .279855E-2
MEAN_MOTION_DDOT = 0

CCSDS_OMM_VERS = 2.0
CREATION_DATE  = 
ORIGINATOR     = 

OBJECT_NAME    = STARLINK-37098
OBJECT_ID      = 2026-050AB
CENTER_NAME    = EARTH
REF_FRAME      = TEME
TIME_SYSTEM    = UTC
MEAN_ELEMENT_THEORY = SGP/SGP4

EPOCH          = 2026-03-30T12:45:51.938496
MEAN_MOTION    = 15.80983373
ECCENTRICITY   = .000134
INCLINATION    = 53.1595
RA_OF_ASC_NODE = 177.1601
ARG_OF_PERICENTER = 97.6121
MEAN_ANOMALY   = 262.5054

EPHEMERIS_TYPE = 0
CLASSIFICATION_TYPE = U
NORAD_CAT_ID   = 68192
ELEMENT_SET_NO = 999
REV_AT_EPOCH   = 377
BSTAR          = .13994335E-2
MEAN_MOTION_DOT = .28631E-2
MEAN_MOTION_DDOT = 0

CCSDS_OMM_VERS = 2.0
CREATION_DATE  = 
ORIGINATOR     = 

OBJECT_NAME    = STARLINK-37090
OBJECT_ID      = 2026-050AC
CENTER_NAME    = EARTH
REF_FRAME      = TEME
TIME_SYSTEM    = UTC
MEAN_ELEMENT_THEORY = SGP/SGP4

EPOCH          = 2026-03-30T12:43:42.429216
MEAN_MOTION    = 15.81012183
ECCENTRICITY   = .00009169
INCLINATION    = 53.1592
RA_OF_ASC_NODE = 177.1491
ARG_OF_PERICENTER = 88.2535
MEAN_ANOMALY   = 271.8593

EPHEMERIS_TYPE = 0
CLASSIFICATION_TYPE = U
NORAD_CAT_ID   = 68193
ELEMENT_SET_NO = 999
REV_AT_EPOCH   = 377
BSTAR          = .18667125E-2
MEAN_MOTION_DOT = .387223E-2
MEAN_MOTION_DDOT = 0

CCSDS_OMM_VERS = 2.0
CREATION_DATE  = 
ORIGINATOR     = 

OBJECT_NAME    = STARLINK-37093
OBJECT_ID      = 2026-050AD
CENTER_NAME    = EARTH
REF_FRAME      = TEME
TIME_SYSTEM    = UTC
MEAN_ELEMENT_THEORY = SGP/SGP4

EPOCH          = 2026-03-30T14:20:08.924928
MEAN_MOTION    = 15.80945531
ECCENTRICITY   = .0001504
INCLINATION    = 53.1593
RA_OF_ASC_NODE = 176.8583
ARG_OF_PERICENTER = 75.0231
MEAN_ANOMALY   = 285.0958

EPHEMERIS_TYPE = 0
CLASSIFICATION_TYPE = U
NORAD_CAT_ID   = 68194
ELEMENT_SET_NO = 999
REV_AT_EPOCH   = 378
BSTAR          = .1031091E-2
MEAN_MOTION_DOT = .208489E-2
MEAN_MOTION_DDOT = 0

CCSDS_OMM_VERS = 2.0
CREATION_DATE  = 
ORIGINATOR     = 

OBJECT_NAME    = STARLINK-37058
OBJECT_ID      = 2026-050AE
CENTER_NAME    = EARTH
REF_FRAME      = TEME
TIME_SYSTEM    = UTC
MEAN_ELEMENT_THEORY = SGP/SGP4

EPOCH          = 2026-03-30T12:44:47.301792
MEAN_MOTION    = 15.80944888
ECCENTRICITY   = .00009673
INCLINATION    = 53.1596
RA_OF_ASC_NODE = 177.1546
ARG_OF_PERICENTER = 110.7970
MEAN_ANOMALY   = 249.3157

EPHEMERIS_TYPE = 0
CLASSIFICATION_TYPE = U
NORAD_CAT_ID   = 68195
ELEMENT_SET_NO = 999
REV_AT_EPOCH   = 221
BSTAR          = .10180945E-2
MEAN_MOTION_DOT = .205781E-2
MEAN_MOTION_DDOT = 0

CCSDS_OMM_VERS = 2.0
CREATION_DATE  = 
ORIGINATOR     = 

OBJECT_NAME    = YAOGAN-50 02
OBJECT_ID      = 2026-051A
CENTER_NAME    = EARTH
REF_FRAME      = TEME
TIME_SYSTEM    = UTC
MEAN_ELEMENT_THEORY = SGP/SGP4

EPOCH          = 2026-03-30T14:09:53.749152
MEAN_MOTION    = 13.83266229
ECCENTRICITY   = .00007992
INCLINATION    = 141.9868
RA_OF_ASC_NODE = 308.0268
ARG_OF_PERICENTER = 268.7957
MEAN_ANOMALY   = 91.2671

EPHEMERIS_TYPE = 0
CLASSIFICATION_TYPE = U
NORAD_CAT_ID   = 68196
ELEMENT_SET_NO = 999
REV_AT_EPOCH   = 210
BSTAR          = .72370343E-4
MEAN_MOTION_DOT = .267E-5
MEAN_MOTION_DDOT = 0

